NORAD_CAT_ID,OBJECT_NAME,OBJECT_TYPE,EPOCH,MEAN_MOTION,ECCENTRICITY,INCLINATION,RA_OF_ASC_NODE,ARG_OF_PERICENTER,MEAN_ANOMALY,BSTAR,MEAN_MOTION_DOT,MEAN_MOTION_DDOT,TLE_LINE0,TLE_LINE1,TLE_LINE2,SEMIMAJOR_AXIS,PERIOD,APOGEE,PERIGEE,DECAYED
53170.0,STARLINK-4095,PAYLOAD,2022-08-30 22:00:00,15.73195354,0.000267,53.2162,187.4578,19.0183,359.0440000000001,-0.00013749,-0.00019872,0.0,0 STARLINK-4095,1 53170U 22083AQ  22242.91667824 -.00019872  00000-0 -13749-3 0  9992,2 53170  53.2162 187.4578 0002670  19.0183 359.0440 15.73195354  1306,6727.908,91.533,351.57,347.977,0.0
53170.0,STARLINK-4095,PAYLOAD,2022-08-31 14:00:01,15.73237017,0.0002694,53.2156,184.1591,18.2974,177.5954,-0.00056931,-0.00079909,0.0,0 STARLINK-4095,1 53170U 22083AQ  22243.58334491 -.00079909  00000-0 -56931-3 0  9994,2 53170  53.2156 184.1591 0002694  18.2974 177.5954 15.73237017  1309,6727.79,91.531,351.467,347.842,0.0
53170.0,STARLINK-4095,PAYLOAD,2022-08-31 20:00:01,15.73173084,0.0002526999999999,53.2156,182.9215,18.7026,153.9029,0.00031456,0.00043709,0.0,0 STARLINK-4095,1 53170U 22083AQ  22243.83334491  .00043709  00000-0  31456-3 0  9994,2 53170  53.2156 182.9215 0002527  18.7026 153.9029 15.73173084  7777,6727.972,91.535,351.537,348.13699999999994,0.0
53170.0,STARLINK-4095,PAYLOAD,2022-08-31 22:00:00,15.73189893,0.0002563,53.2156,182.5097,17.6803,267.1502,0.0001696999999999,0.00023253,0.0,0 STARLINK-4095,1 53170U 22083AQ  22243.91667824  .00023253  00000-0  16970-3 0  9998,2 53170  53.2156 182.5097 0002563  17.6803 267.1502 15.73189893  1304,6727.924,91.534,351.51300000000015,348.065,0.0
53170.0,STARLINK-4095,PAYLOAD,2022-09-01 12:00:00,15.73243442,0.0002634,53.2157,179.6235,13.2904,337.1681,-0.00068206,-0.00095463,0.0,0 STARLINK-4095,1 53170U 22083AQ  22244.50001157 -.00095463  00000-0 -68206-3 0  9998,2 53170  53.2157 179.6235 0002634  13.2904 337.1681 15.73243442  7874,6727.771,91.531,351.408,347.86400000000015,0.0
53170.0,STARLINK-4095,PAYLOAD,2022-09-01 14:00:01,15.73195902,0.0002549999999999,53.2158,179.2105,12.2615,90.5175,-2.111e-05,-3.583e-05,0.0,0 STARLINK-4095,1 53170U 22083AQ  22244.58335648 -.00003583  00000-0 -21110-4 0  9997,2 53170  53.2158 179.2105 0002550  12.2615  90.5175 15.73195902  1309,6727.906999999997,91.533,351.487,348.056,0.0
53170.0,STARLINK-4095,PAYLOAD,2022-09-01 22:00:00,15.73214476,0.0002563999999999,53.2159,177.5612,15.1239,176.505,0.00018481,0.00025413,0.0,0 STARLINK-4095,1 53170U 22083AQ  22244.91667824  .00025413  00000-0  18481-3 0  9998,2 53170  53.2159 177.5612 0002564  15.1239 176.5050 15.73214476  7944,6727.854,91.532,351.444,347.994,0.0
53170.0,STARLINK-4095,PAYLOAD,2022-09-02 12:00:02,15.73255168,0.000267,53.2151,174.6746,16.7327,240.613,-0.0010061,-0.00139862,0.0,0 STARLINK-4095,1 53170U 22083AQ  22245.50002315 -.00139862  00000-0 -10061-2 0  9993,2 53170  53.2151 174.6746 0002670  16.7327 240.6130 15.73255168  8031,6727.738,91.53,351.399,347.807,0.0
53170.0,STARLINK-4095,PAYLOAD,2022-09-02 14:00:01,15.73202533,0.0002556,53.2152,174.2618,16.9142,352.6185,-0.00046745,-0.00065734,0.0,0 STARLINK-4095,1 53170U 22083AQ  22245.58334491 -.00065734  00000-0 -46745-3 0  9999,2 53170  53.2152 174.2618 0002556  16.9142 352.6185 15.73202533  1301,6727.888000000001,91.533,351.473,348.033,0.0
53170.0,STARLINK-4095,PAYLOAD,2022-09-02 20:00:01,15.73147844,0.0002493,53.2153,173.0246,17.4613,328.749,0.00029311,0.00040626,0.0,0 STARLINK-4095,1 53170U 22083AQ  22245.83334491  .00040626  00000-0  29311-3 0  9998,2 53170  53.2153 173.0246 0002493  17.4613 328.7490 15.73147844  8083,6728.044,91.536,351.586,348.232,0.0
53170.0,STARLINK-4095,PAYLOAD,2022-09-02 22:00:01,15.73166722,0.0002555,53.2153,172.6128,16.8896,81.6,6.2882e-05,8.2e-05,0.0,0 STARLINK-4095,1 53170U 22083AQ  22245.91668981  .00008200  00000-0  62882-4 0  9994,2 53170  53.2153 172.6128 0002555  16.8896  81.6000 15.73166722  1308,6727.99,91.535,351.574,348.136,0.0
53170.0,STARLINK-4095,PAYLOAD,2022-09-03 14:00:01,15.73203016,0.0002571,53.2156,169.3134,17.9418,258.3069,0.00049837,0.00069923,0.0,0 STARLINK-4095,1 53170U 22083AQ  22246.58334491  .00069923  00000-0  49837-3 0  9997,2 53170  53.2156 169.3134 0002571  17.9418 258.3069 15.73203016  1307,6727.887,91.533,351.481,348.022,0.0
53170.0,STARLINK-4095,PAYLOAD,2022-09-03 22:00:00,15.73287962,0.0002671,53.2157,167.6642,22.3951,342.8061,-0.00075564,-0.00105768,0.0,0 STARLINK-4095,1 53170U 22083AQ  22246.91667824 -.00105768  00000-0 -75564-3 0  9999,2 53170  53.2157 167.6642 0002671  22.3951 342.8061 15.73287962  1309,6727.644,91.528,351.306,347.712,0.0
53170.0,STARLINK-4095,PAYLOAD,2022-09-04 06:00:00,15.73215389,0.0002883999999999,53.2153,166.016,22.6516,71.5478,0.00041724,0.00058391,0.0,0 STARLINK-4095,1 53170U 22083AQ  22247.25001157  .00058391  00000-0  41724-3 0  9996,2 53170  53.2153 166.0160 0002884  22.6516  71.5478 15.73215389  8319,6727.851,91.532,351.657,347.776,0.0
53170.0,STARLINK-4095,PAYLOAD,2022-09-04 14:00:01,15.73229052,0.0002504,53.2153,164.3642,19.6899,163.5687,3.2358000000000004e-05,3.927e-05,0.0,0 STARLINK-4095,1 53170U 22083AQ  22247.58335648  .00003927  00000-0  32358-4 0  9996,2 53170  53.2153 164.3642 0002504  19.6899 163.5687 15.73229052  1302,6727.812,91.531,351.362,347.99300000000005,0.0
53170.0,STARLINK-4095,PAYLOAD,2022-09-04 16:00:00,15.73225484,0.0002432,53.2151,163.9516,19.2489,276.1886,2.5119e-05,2.909e-05,0.0,0 STARLINK-4095,1 53170U 22083AQ  22247.66667824  .00002909  00000-0  25119-4 0  9995,2 53170  53.2151 163.9516 0002432  19.2489 276.1886 15.73225484  8377,6727.823,91.532,351.324,348.051,0.0
53170.0,STARLINK-4095,PAYLOAD,2022-09-04 20:00:01,15.7325571,0.0002376999999999,53.2155,163.1274,17.9162,141.9948,-0.0005283999999999,-0.00074315,0.0,0 STARLINK-4095,1 53170U 22083AQ  22247.83334491 -.00074315  00000-0 -52840-3 0  9997,2 53170  53.2155 163.1274 0002377  17.9162 141.9948 15.73255710  1304,6727.736,91.53,351.201,348.00199999999984,0.0
53170.0,STARLINK-4095,PAYLOAD,2022-09-05 12:00:00,15.73230686,0.0002476,53.2159,159.8283,15.3962,322.456,-0.00056079,-0.00078709,0.0,0 STARLINK-4095,1 53170U 22083AQ  22248.50001157 -.00078709  00000-0 -56079-3 0  9991,2 53170  53.2159 159.8283 0002476  15.3962 322.4560 15.73230686  8500,6727.808000000001,91.531,351.338,348.00699999999995,0.0
53170.0,STARLINK-4095,PAYLOAD,2022-09-05 14:00:01,15.7319286,0.0002441999999999,53.2159,159.4156,16.5737,73.5264,-0.00018529,-0.0002654,0.0,0 STARLINK-4095,1 53170U 22083AQ  22248.58334491 -.00026540  00000-0 -18529-3 0  9993,2 53170  53.2159 159.4156 0002442  16.5737  73.5264 15.73192860  1308,6727.916,91.534,351.423,348.13800000000015,0.0
53170.0,STARLINK-4095,PAYLOAD,2022-09-05 22:00:00,15.73186495,0.0002569,53.2161,157.7669,20.6901,158.3323,-0.00050111,-0.00070337,0.0,0 STARLINK-4095,1 53170U 22083AQ  22248.91667824 -.00070337  00000-0 -50111-3 0  9995,2 53170  53.2161 157.7669 0002569  20.6901 158.3323 15.73186495  1305,6727.934,91.534,351.527,348.07,0.0
53170.0,STARLINK-4095,PAYLOAD,2022-09-06 04:00:00,15.73093914,0.0002742,53.2162,156.5311,19.3034,136.3637,0.00055784,0.00078051,0.0,0 STARLINK-4095,1 53170U 22083AQ  22249.16667824  .00078051  00000-0  55784-3 0  9993,2 53170  53.2162 156.5311 0002742  19.3034 136.3637 15.73093914  8610,6728.198,91.539,351.908,348.218,0.0
53170.0,STARLINK-4095,PAYLOAD,2022-09-06 12:00:00,15.73121148,0.0002579,53.2161,154.88,22.9584,221.553,7.8121e-05,0.0001032,0.0,0 STARLINK-4095,1 53170U 22083AQ  22249.50001157  .00010320  00000-0  78121-4 0  9998,2 53170  53.2161 154.8800 0002579  22.9584 221.5530 15.73121148  8666,6728.12,91.538,351.72,348.25,0.0
53170.0,STARLINK-4095,PAYLOAD,2022-09-06 14:00:01,15.73089202,0.0002511,53.2159,154.4673,25.146,331.5829,0.000628,0.00088031,0.0,0 STARLINK-4095,1 53170U 22083AQ  22249.58334491  .00088031  00000-0  62800-3 0  9996,2 53170  53.2159 154.4673 0002511  25.1460 331.5829 15.73089202  1302,6728.2109999999975,91.54,351.766,348.38699999999994,0.0
53170.0,STARLINK-4095,PAYLOAD,2022-09-06 20:00:01,15.73153321,0.0002526999999999,53.2162,153.2311,26.0829,307.2566,0.00025757,0.00035612,0.0,0 STARLINK-4095,1 53170U 22083AQ  22249.83334491  .00035612  00000-0  25757-3 0  9991,2 53170  53.2162 153.2311 0002527  26.0829 307.2566 15.73153321  8712,6728.028,91.536,351.593,348.1930000000001,0.0
53170.0,STARLINK-4095,PAYLOAD,2022-09-06 22:00:00,15.73162744,0.0002598,53.2161,152.8194,25.3561,60.201,0.00020538,0.00028257,0.0,0 STARLINK-4095,1 53170U 22083AQ  22249.91667824  .00028257  00000-0  20538-3 0  9998,2 53170  53.2161 152.8194 0002598  25.3561  60.2010 15.73162744  1305,6728.001,91.535,351.61400000000015,348.11800000000005,0.0
53170.0,STARLINK-4095,PAYLOAD,2022-09-07 14:00:01,15.7318166,0.0002522,53.2166,149.5194,25.4839,237.8568,0.00068144,0.00096048,0.0,0 STARLINK-4095,1 53170U 22083AQ  22250.58334491  .00096048  00000-0  68144-3 0  9992,2 53170  53.2166 149.5194 0002522  25.4839 237.8568 15.73181660  1307,6727.946999999999,91.534,351.509,348.116,0.0
53170.0,STARLINK-4095,PAYLOAD,2022-09-07 22:00:00,15.73294664,0.0002602,53.2168,147.8712,23.8513,328.4268,-0.00077,-0.0010777,0.0,0 STARLINK-4095,1 53170U 22083AQ  22250.91667824 -.00107770  00000-0 -77000-3 0  9996,2 53170  53.2168 147.8712 0002602  23.8513 328.4268 15.73294664  8889,6727.625,91.528,351.241,347.74,0.0
53170.0,STARLINK-4095,PAYLOAD,2022-09-08 06:00:00,15.73248207,0.0002653,53.2165,146.2222,17.6339,63.6567,-0.00013194,-0.00019139,0.0,0 STARLINK-4095,1 53170U 22083AQ  22251.25001157 -.00019139  00000-0 -13194-3 0  9990,2 53170  53.2165 146.2222 0002653  17.6339  63.6567 15.73248207  8936,6727.7580000000025,91.53,351.408,347.838,0.0
53170.0,STARLINK-4095,PAYLOAD,2022-09-08 14:00:01,15.73169461,0.0002303,53.2164,144.5709,16.758,153.5159,0.00067916,0.00095668,0.0,0 STARLINK-4095,1 53170U 22083AQ  22251.58334491  .00095668  00000-0  67916-3 0  9996,2 53170  53.2164 144.5709 0002303  16.7580 153.5159 15.73169461  1300,6727.982,91.535,351.397,348.298,0.0
